[{"OBJECT_NAME":"STARLINK-30776","OBJECT_ID":"2023-162U","EPOCH":"2026-03-09T22:00:01.999584","MEAN_MOTION":15.2481564,"ECCENTRICITY":0.00014304,"INCLINATION":43.0008,"RA_OF_ASC_NODE":131.3181,"ARG_OF_PERICENTER":256.5401,"MEAN_ANOMALY":336.6047,"EPHEMERIS_TYPE":0,"CLASSIFICATION_TYPE":"U","NORAD_CAT_ID":58136,"ELEMENT_SET_NO":999,"REV_AT_EPOCH":568,"BSTAR":0.043191873,"MEAN_MOTION_DOT":0.01190361,"MEAN_MOTION_DDOT":0},{"OBJECT_NAME":"CERISE","OBJECT_ID":"1995-033B","EPOCH":"2026-03-09T23:11:27.589056","MEAN_MOTION":15.32047731,"ECCENTRICITY":0.00057118,"INCLINATION":98.325,"RA_OF_ASC_NODE":273.5192,"ARG_OF_PERICENTER":211.8754,"MEAN_ANOMALY":148.214,"EPHEMERIS_TYPE":0,"CLASSIFICATION_TYPE":"U","NORAD_CAT_ID":23606,"ELEMENT_SET_NO":999,"REV_AT_EPOCH":66468,"BSTAR":0.00062940675,"MEAN_MOTION_DOT":0.00019422,"MEAN_MOTION_DDOT":0}]
